{
  "norad_id": 68179,
  "name": "STARLINK-37052",
  "history": [
    {
      "epoch": "2026-03-28T18:31:58.521504Z",
      "apogee_km": 328.55352005788154,
      "perigee_km": 326.8751795820499,
      "latitude_deg": -3.079457220682811e-05,
      "longitude_deg": 81.91968149428794,
      "height_km": 328.2512531730971,
      "semi_major_axis_km": 6705.851349819965,
      "eccentricity": 0.00012514,
      "inclination_deg": 53.1589,
      "raan_deg": 186.1014,
      "arg_perigee_deg": 63.0,
      "mean_anomaly_deg": 297.115,
      "mean_motion_rev_day": 15.80963629
    },
    {
      "epoch": "2026-03-29T03:38:11.334912Z",
      "apogee_km": 328.74473280021266,
      "perigee_km": 326.9381422091483,
      "latitude_deg": -3.473426284893273e-05,
      "longitude_deg": -56.90828054727798,
      "height_km": 327.94610169189656,
      "semi_major_axis_km": 6705.97843750468,
      "eccentricity": 0.0001347,
      "inclination_deg": 53.1589,
      "raan_deg": 184.2007,
      "arg_perigee_deg": 25.7054,
      "mean_anomaly_deg": 334.4035,
      "mean_motion_rev_day": 15.80918687
    },
    {
      "epoch": "2026-03-29T23:21:40.653216Z",
      "apogee_km": 329.73156032927636,
      "perigee_km": 325.49888952490346,
      "latitude_deg": -7.22779666163321e-05,
      "longitude_deg": 2.290963112733897,
      "height_km": 327.8837069825979,
      "semi_major_axis_km": 6705.75222492709,
      "eccentricity": 0.0003156,
      "inclination_deg": 53.1592,
      "raan_deg": 180.0822,
      "arg_perigee_deg": 72.208,
      "mean_anomaly_deg": 287.9286,
      "mean_motion_rev_day": 15.80998684
    },
    {
      "epoch": "2026-03-30T06:56:50.630496Z",
      "apogee_km": 328.0048196693606,
      "perigee_km": 327.0174800357763,
      "latitude_deg": 3.608314106952825e-05,
      "longitude_deg": -113.39647806530492,
      "height_km": 328.9022548056691,
      "semi_major_axis_km": 6705.648149852568,
      "eccentricity": 7.362e-05,
      "inclination_deg": 53.1589,
      "raan_deg": 178.4978,
      "arg_perigee_deg": 162.9877,
      "mean_anomaly_deg": 197.1171,
      "mean_motion_rev_day": 15.81035491
    },
    {
      "epoch": "2026-03-30T13:00:59.650848Z",
      "apogee_km": 328.3934992000277,
      "perigee_km": 327.2913044255456,
      "latitude_deg": 3.323394285865737e-05,
      "longitude_deg": 154.04988325373876,
      "height_km": 328.6172878033851,
      "semi_major_axis_km": 6705.979401812787,
      "eccentricity": 8.218e-05,
      "inclination_deg": 53.1591,
      "raan_deg": 177.231,
      "arg_perigee_deg": 74.9166,
      "mean_anomaly_deg": 285.1948,
      "mean_motion_rev_day": 15.80918346
    },
    {
      "epoch": "2026-03-30T17:34:05.554272Z",
      "apogee_km": 327.9304391057194,
      "perigee_km": 327.27595886229847,
      "latitude_deg": 1.1847472625366576e-05,
      "longitude_deg": 84.6377407344088,
      "height_km": 328.57752059519936,
      "semi_major_axis_km": 6705.740198984008,
      "eccentricity": 4.88e-05,
      "inclination_deg": 53.1588,
      "raan_deg": 176.2804,
      "arg_perigee_deg": 99.7871,
      "mean_anomaly_deg": 260.3207,
      "mean_motion_rev_day": 15.81002937
    },
    {
      "epoch": "2026-03-31T16:19:38.688096Z",
      "apogee_km": 328.4314088203764,
      "perigee_km": 327.04329282975505,
      "latitude_deg": 5.549109695008054e-05,
      "longitude_deg": 97.56242962443368,
      "height_km": 328.6521785258732,
      "semi_major_axis_km": 6705.874350825065,
      "eccentricity": 0.0001035,
      "inclination_deg": 53.1588,
      "raan_deg": 171.5278,
      "arg_perigee_deg": 89.7421,
      "mean_anomaly_deg": 270.3721,
      "mean_motion_rev_day": 15.80955495
    },
    {
      "epoch": "2026-04-01T16:36:12.785760Z",
      "apogee_km": 328.7632108406042,
      "perigee_km": 326.64952901040306,
      "latitude_deg": 3.641460621172775e-05,
      "longitude_deg": 87.35475754337386,
      "height_km": 327.98628371743695,
      "semi_major_axis_km": 6705.843369925503,
      "eccentricity": 0.0001576,
      "inclination_deg": 53.1586,
      "raan_deg": 166.4592,
      "arg_perigee_deg": 52.8836,
      "mean_anomaly_deg": 307.2331,
      "mean_motion_rev_day": 15.80966451
    },
    {
      "epoch": "2026-04-02T15:21:44.405856Z",
      "apogee_km": 328.1977103723084,
      "perigee_km": 326.97458647003714,
      "latitude_deg": -1.0378203779756517e-05,
      "longitude_deg": 100.28560308893815,
      "height_km": 328.5321619062165,
      "semi_major_axis_km": 6705.7231484211725,
      "eccentricity": 9.12e-05,
      "inclination_deg": 53.158,
      "raan_deg": 161.7065,
      "arg_perigee_deg": 92.62,
      "mean_anomaly_deg": 267.4927,
      "mean_motion_rev_day": 15.81008967
    },
    {
      "epoch": "2026-04-02T21:25:52.761792Z",
      "apogee_km": 328.6953652460779,
      "perigee_km": 326.0259066372091,
      "latitude_deg": 2.54204673382176e-06,
      "longitude_deg": 7.734352020525809,
      "height_km": 327.8542857288721,
      "semi_major_axis_km": 6705.497635941643,
      "eccentricity": 0.00019905,
      "inclination_deg": 53.1578,
      "raan_deg": 160.4393,
      "arg_perigee_deg": 71.5201,
      "mean_anomaly_deg": 288.6038,
      "mean_motion_rev_day": 15.81088724
    },
    {
      "epoch": "2026-04-03T15:38:20.959872Z",
      "apogee_km": 328.76523771594293,
      "perigee_km": 327.23087401516204,
      "latitude_deg": 3.144686040367717e-05,
      "longitude_deg": 90.06721245888077,
      "height_km": 328.55906887643357,
      "semi_major_axis_km": 6706.135055865552,
      "eccentricity": 0.0001144,
      "inclination_deg": 53.1576,
      "raan_deg": 156.6374,
      "arg_perigee_deg": 62.2837,
      "mean_anomaly_deg": 297.8302,
      "mean_motion_rev_day": 15.80863305
    },
    {
      "epoch": "2026-04-04T20:28:01.892352Z",
      "apogee_km": 329.0421461188098,
      "perigee_km": 326.68833933161295,
      "latitude_deg": -1.0686929000883947e-05,
      "longitude_deg": 10.442502828644956,
      "height_km": 328.09845181740997,
      "semi_major_axis_km": 6706.002242725211,
      "eccentricity": 0.0001755,
      "inclination_deg": 53.1566,
      "raan_deg": 150.6172,
      "arg_perigee_deg": 54.4677,
      "mean_anomaly_deg": 305.6509,
      "mean_motion_rev_day": 15.80910269
    },
    {
      "epoch": "2026-04-05T13:09:25.531488Z",
      "apogee_km": 328.88968318598745,
      "perigee_km": 326.6059270567557,
      "latitude_deg": 2.34706238436525e-06,
      "longitude_deg": 115.92358519041265,
      "height_km": 327.9908125045213,
      "semi_major_axis_km": 6705.884805121371,
      "eccentricity": 0.00017028,
      "inclination_deg": 53.1567,
      "raan_deg": 147.1322,
      "arg_perigee_deg": 53.8079,
      "mean_anomaly_deg": 306.3101,
      "mean_motion_rev_day": 15.80951798
    },
    {
      "epoch": "2026-04-05T20:44:35.742048Z",
      "apogee_km": 328.84131445754974,
      "perigee_km": 326.34812340445205,
      "latitude_deg": 5.019545318791529e-06,
      "longitude_deg": 0.23498970049316725,
      "height_km": 328.0424021203147,
      "semi_major_axis_km": 6705.731718931001,
      "eccentricity": 0.0001859,
      "inclination_deg": 53.1565,
      "raan_deg": 145.5477,
      "arg_perigee_deg": 67.8949,
      "mean_anomaly_deg": 292.2271,
      "mean_motion_rev_day": 15.81005936
    },
    {
      "epoch": "2026-04-06T05:50:48.781824Z",
      "apogee_km": 328.66691892321705,
      "perigee_km": 327.1060248998947,
      "latitude_deg": -1.1431687568643877e-05,
      "longitude_deg": -138.59462828125575,
      "height_km": 328.6747492033762,
      "semi_major_axis_km": 6706.023471911556,
      "eccentricity": 0.00011638,
      "inclination_deg": 53.1565,
      "raan_deg": 143.6463,
      "arg_perigee_deg": 80.4664,
      "mean_anomaly_deg": 279.649,
      "mean_motion_rev_day": 15.80902762
    },
    {
      "epoch": "2026-04-07T19:46:43.234464Z",
      "apogee_km": 329.21574150921424,
      "perigee_km": 326.1270461630138,
      "latitude_deg": -7.82862819684443e-05,
      "longitude_deg": 2.9497282540573013,
      "height_km": 328.19850657420346,
      "semi_major_axis_km": 6705.808393836114,
      "eccentricity": 0.0002303,
      "inclination_deg": 53.1559,
      "raan_deg": 135.7254,
      "arg_perigee_deg": 75.4159,
      "mean_anomaly_deg": 284.7118,
      "mean_motion_rev_day": 15.8097882
    },
    {
      "epoch": "2026-04-08T14:00:04.999680Z",
      "apogee_km": 337.2808948901693,
      "perigee_km": 336.3034697983876,
      "latitude_deg": -0.3313629363155918,
      "longitude_deg": 84.81713959991392,
      "height_km": 337.67646130713564,
      "semi_major_axis_km": 6714.929182344278,
      "eccentricity": 7.278e-05,
      "inclination_deg": 53.158,
      "raan_deg": 131.9287,
      "arg_perigee_deg": 80.5999,
      "mean_anomaly_deg": 279.099,
      "mean_motion_rev_day": 15.77758784
    },
    {
      "epoch": "2026-04-09T20:00:01.999008Z",
      "apogee_km": 352.37666411254213,
      "perigee_km": 350.9486006305524,
      "latitude_deg": -49.63637295568921,
      "longitude_deg": -131.14878596549445,
      "height_km": 369.4368945315662,
      "semi_major_axis_km": 6729.799632371547,
      "eccentricity": 0.0001061,
      "inclination_deg": 53.1596,
      "raan_deg": 125.7129,
      "arg_perigee_deg": 87.7768,
      "mean_anomaly_deg": 163.9496,
      "mean_motion_rev_day": 15.7253225
    },
    {
      "epoch": "2026-04-10T12:00:02.000160Z",
      "apogee_km": 360.552371834764,
      "perigee_km": 358.92854336748223,
      "latitude_deg": 46.441078407433935,
      "longitude_deg": 155.2586188172906,
      "height_km": 363.92709488734323,
      "semi_major_axis_km": 6737.877457601123,
      "eccentricity": 0.0001205,
      "inclination_deg": 53.1591,
      "raan_deg": 122.4217,
      "arg_perigee_deg": 59.8331,
      "mean_anomaly_deg": 4.7597,
      "mean_motion_rev_day": 15.6970521
    }
  ]
}